{
  "norad_id": 54771,
  "name": "STARLINK-5451",
  "history": [
    {
      "epoch": "2026-03-28T21:49:46.301952Z",
      "apogee_km": 540.6047020821043,
      "perigee_km": 538.886300068837,
      "latitude_deg": -3.379453706825531e-05,
      "longitude_deg": 158.8744072714319,
      "height_km": 540.6221426888535,
      "semi_major_axis_km": 6917.882501075471,
      "eccentricity": 0.0001242,
      "inclination_deg": 53.2179,
      "raan_deg": 312.6406,
      "arg_perigee_deg": 88.7138,
      "mean_anomaly_deg": 271.3996,
      "mean_motion_rev_day": 15.08839309
    }
  ]
}